FENGYUN 1C DEB          
1 31178U 99025BJG 17345.26931528  .00000824  00000-0  50226-3 0  9993
2 31178  99.5286 154.8249 0153767  99.1179 262.7419 14.03319018546870
